[
    {
        "Altitude(m)": 607911.0235786049,
        "Argument of Periapsis(deg)": 0.0,
        "Eccentricity": 0.0,
        "Inclination(deg)": 60.0,
        "Latitude(deg)": -14.293026211583403,
        "Longitude(deg)": -111.55736052947573,
        "Mean Anomaly(deg)": 196.36360000000002,
        "RAAN(deg)": 160.0,
        "Satellite Name": "Test1 716",
        "Satellite Number": 716,
        "Semi-Major Axis(m)": 6980739.136638005,
        "Time(s)": 0
    },
    {
        "Altitude(m)": 608060.2576968742,
        "Argument of Periapsis(deg)": 0.00010418945913296404,
        "Eccentricity": 0.0,
        "Inclination(deg)": 60.0,
        "Latitude(deg)": -14.826687768897074,
        "Longitude(deg)": -111.26875129536432,
        "Mean Anomaly(deg)": 196.9837061454618,
        "RAAN(deg)": 159.99957995086024,
        "Satellite Name": "Test1 716",
        "Satellite Number": 716,
        "Semi-Major Axis(m)": 6980739.136638005,
        "Time(s)": 10
    },
    {
        "Altitude(m)": 608211.9220173121,
        "Argument of Periapsis(deg)": 0.0002083789182659281,
        "Eccentricity": 0.0,
        "Inclination(deg)": 60.0,
        "Latitude(deg)": -15.35983310549943,
        "Longitude(deg)": -110.97853326313603,
        "Mean Anomaly(deg)": 197.60381229092366,
        "RAAN(deg)": 159.9991599017205,
        "Satellite Name": "Test1 716",
        "Satellite Number": 716,
        "Semi-Major Axis(m)": 6980739.136638005,
        "Time(s)": 20
    },
    {
        "Altitude(m)": 608365.9684582748,
        "Argument of Periapsis(deg)": 0.00031256837739889213,
        "Eccentricity": 0.0,
        "Inclination(deg)": 60.0,
        "Latitude(deg)": -15.892441012244129,
        "Longitude(deg)": -110.68663896520253,
        "Mean Anomaly(deg)": 198.22391843638547,
        "RAAN(deg)": 159.99873985258077,
        "Satellite Name": "Test1 716",
        "Satellite Number": 716,
        "Semi-Major Axis(m)": 6980739.136638005,
        "Time(s)": 30
    },
    {
        "Altitude(m)": 608522.3477405801,
        "Argument of Periapsis(deg)": 0.0004167578365318562,
        "Eccentricity": 0.0,
        "Inclination(deg)": 60.0,
        "Latitude(deg)": -16.424489947723963,
        "Longitude(deg)": -110.39299941495726,
        "Mean Anomaly(deg)": 198.84402458184726,
        "RAAN(deg)": 159.99831980344103,
        "Satellite Name": "Test1 716",
        "Satellite Number": 716,
        "Semi-Major Axis(m)": 6980739.136638005,
        "Time(s)": 40
    },
    {
        "Altitude(m)": 608681.0094088211,
        "Argument of Periapsis(deg)": 0.0005209472956648203,
        "Eccentricity": 0.0,
        "Inclination(deg)": 60.0,
        "Latitude(deg)": -16.955958022249167,
        "Longitude(deg)": -110.09754507144706,
        "Mean Anomaly(deg)": 199.4641307273091,
        "RAAN(deg)": 159.99789975430127,
        "Satellite Name": "Test1 716",
        "Satellite Number": 716,
        "Semi-Major Axis(m)": 6980739.136638005,
        "Time(s)": 50
    },
    {
        "Altitude(m)": 608841.9018532172,
        "Argument of Periapsis(deg)": 0.0006251367547977843,
        "Eccentricity": 0.0,
        "Inclination(deg)": 60.0,
        "Latitude(deg)": -17.486822981346613,
        "Longitude(deg)": -109.80020529033114,
        "Mean Anomaly(deg)": -159.91576312722904,
        "RAAN(deg)": 159.99747970516154,
        "Satellite Name": "Test1 716",
        "Satellite Number": 716,
        "Semi-Major Axis(m)": 6980739.136638005,
        "Time(s)": 60
    },
    {
        "Altitude(m)": 609004.972332074,
        "Argument of Periapsis(deg)": 0.0007293262139307483,
        "Eccentricity": 0.0,
        "Inclination(deg)": 60.0,
        "Latitude(deg)": -18.017062188755745,
        "Longitude(deg)": -109.50090777397789,
        "Mean Anomaly(deg)": -159.2956569817672,
        "RAAN(deg)": 159.9970596560218,
        "Satellite Name": "Test1 716",
        "Satellite Number": 716,
        "Semi-Major Axis(m)": 6980739.136638005,
        "Time(s)": 70
    },
    {
        "Altitude(m)": 609170.1669946893,
        "Argument of Periapsis(deg)": 0.0008335156730637124,
        "Eccentricity": 0.0,
        "Inclination(deg)": 60.0,
        "Latitude(deg)": -18.546652608895304,
        "Longitude(deg)": -109.19957953354961,
        "Mean Anomaly(deg)": -158.67555083630538,
        "RAAN(deg)": 159.99663960688207,
        "Satellite Name": "Test1 716",
        "Satellite Number": 716,
        "Semi-Major Axis(m)": 6980739.136638005,
        "Time(s)": 80
    },
    {
        "Altitude(m)": 609337.4309048888,
        "Argument of Periapsis(deg)": 0.0009377051321966765,
        "Eccentricity": 0.0,
        "Inclination(deg)": 60.0,
        "Latitude(deg)": -19.07557078877993,
        "Longitude(deg)": -108.89614633730567,
        "Mean Anomaly(deg)": -158.0554446908435,
        "RAAN(deg)": 159.9962195577423,
        "Satellite Name": "Test1 716",
        "Satellite Number": 716,
        "Semi-Major Axis(m)": 6980739.136638005,
        "Time(s)": 90
    },
    {
        "Altitude(m)": 609506.7080649969,
        "Argument of Periapsis(deg)": 0.0010418945913296407,
        "Eccentricity": 0.0,
        "Inclination(deg)": 60.0,
        "Latitude(deg)": -19.603792839359837,
        "Longitude(deg)": -108.59053215797654,
        "Mean Anomaly(deg)": -157.43533854538168,
        "RAAN(deg)": 159.99579950860257,
        "Satellite Name": "Test1 716",
        "Satellite Number": 716,
        "Semi-Major Axis(m)": 6980739.136638005,
        "Time(s)": 100
    },
    {
        "Altitude(m)": 609677.9414403694,
        "Argument of Periapsis(deg)": 0.0011460840504626045,
        "Eccentricity": 0.0,
        "Inclination(deg)": 60.0,
        "Latitude(deg)": -20.1312944162557,
        "Longitude(deg)": -108.28266013206596,
        "Mean Anomaly(deg)": -156.81523239991986,
        "RAAN(deg)": 159.99537945946284,
        "Satellite Name": "Test1 716",
        "Satellite Number": 716,
        "Semi-Major Axis(m)": 6980739.136638005,
        "Time(s)": 110
    },
    {
        "Altitude(m)": 609851.0729843588,
        "Argument of Periapsis(deg)": 0.0012502735095955685,
        "Eccentricity": 0.0,
        "Inclination(deg)": 60.0,
        "Latitude(deg)": -20.658050699866063,
        "Longitude(deg)": -107.97245200531334,
        "Mean Anomaly(deg)": -156.19512625445805,
        "RAAN(deg)": 159.9949594103231,
        "Satellite Name": "Test1 716",
        "Satellite Number": 716,
        "Semi-Major Axis(m)": 6980739.136638005,
        "Time(s)": 120
    },
    {
        "Altitude(m)": 610026.0436638361,
        "Argument of Periapsis(deg)": 0.0013544629687285324,
        "Eccentricity": 0.0,
        "Inclination(deg)": 60.0,
        "Latitude(deg)": -21.184036374816348,
        "Longitude(deg)": -107.6598275771791,
        "Mean Anomaly(deg)": -155.57502010899626,
        "RAAN(deg)": 159.99453936118334,
        "Satellite Name": "Test1 716",
        "Satellite Number": 716,
        "Semi-Major Axis(m)": 6980739.136638005,
        "Time(s)": 130
    },
    {
        "Altitude(m)": 610202.7934850939,
        "Argument of Periapsis(deg)": 0.0014586524278614966,
        "Eccentricity": 0.0,
        "Inclination(deg)": 60.0,
        "Latitude(deg)": -21.709225608722196,
        "Longitude(deg)": -107.34470565721159,
        "Mean Anomaly(deg)": -154.95491396353438,
        "RAAN(deg)": 159.9941193120436,
        "Satellite Name": "Test1 716",
        "Satellite Number": 716,
        "Semi-Major Axis(m)": 6980739.136638005,
        "Time(s)": 140
    },
    {
        "Altitude(m)": 610381.2615202449,
        "Argument of Periapsis(deg)": 0.0015628418869944607,
        "Eccentricity": 0.0,
        "Inclination(deg)": 60.0,
        "Latitude(deg)": -22.233592030238455,
        "Longitude(deg)": -107.02700350754138,
        "Mean Anomaly(deg)": -154.3348078180726,
        "RAAN(deg)": 159.99369926290385,
        "Satellite Name": "Test1 716",
        "Satellite Number": 716,
        "Semi-Major Axis(m)": 6980739.136638005,
        "Time(s)": 150
    },
    {
        "Altitude(m)": 610561.385934057,
        "Argument of Periapsis(deg)": 0.0016670313461274247,
        "Eccentricity": 0.0,
        "Inclination(deg)": 60.0,
        "Latitude(deg)": -22.75710870636407,
        "Longitude(deg)": -106.7066362843677,
        "Mean Anomaly(deg)": -153.71470167261074,
        "RAAN(deg)": 159.99327921376414,
        "Satellite Name": "Test1 716",
        "Satellite Number": 716,
        "Semi-Major Axis(m)": 6980739.136638005,
        "Time(s)": 160
    },
    {
        "Altitude(m)": 610743.104011194,
        "Argument of Periapsis(deg)": 0.0017712208052603888,
        "Eccentricity": 0.0,
        "Inclination(deg)": 60.0,
        "Latitude(deg)": -23.279748118969884,
        "Longitude(deg)": -106.38351799131186,
        "Mean Anomaly(deg)": -153.0945955271489,
        "RAAN(deg)": 159.99285916462438,
        "Satellite Name": "Test1 716",
        "Satellite Number": 716,
        "Semi-Major Axis(m)": 6980739.136638005,
        "Time(s)": 170
    },
    {
        "Altitude(m)": 610926.352183883,
        "Argument of Periapsis(deg)": 0.001875410264393353,
        "Eccentricity": 0.0,
        "Inclination(deg)": 60.0,
        "Latitude(deg)": -23.80148214052069,
        "Longitude(deg)": -106.05756091888861,
        "Mean Anomaly(deg)": -152.47448938168705,
        "RAAN(deg)": 159.99243911548464,
        "Satellite Name": "Test1 716",
        "Satellite Number": 716,
        "Semi-Major Axis(m)": 6980739.136638005,
        "Time(s)": 180
    },
    {
        "Altitude(m)": 611111.0660599536,
        "Argument of Periapsis(deg)": 0.0019795997235263173,
        "Eccentricity": 0.0,
        "Inclination(deg)": 60.0,
        "Latitude(deg)": -24.32228200895745,
        "Longitude(deg)": -105.7286750829764,
        "Mean Anomaly(deg)": -151.8543832362252,
        "RAAN(deg)": 159.99201906634488,
        "Satellite Name": "Test1 716",
        "Satellite Number": 716,
        "Semi-Major Axis(m)": 6980739.136638005,
        "Time(s)": 190
    }
]